ATLAS CENTAUR R/B       
1 06155U 72065B   25307.73216926  .00001573  00000+0  21962-3 0  9998
2 06155  35.0025 323.6705 0033451  29.7390 330.5204 14.77249899822623
SL-8 R/B                
1 08459U 75112B   25307.80577764  .00000320  00000+0  11397-3 0  9991
2 08459  74.0600 250.4664 0015382   8.2873 351.8532 14.38106251613771
SL-3 R/B                
1 10114U 77057B   25307.76318589  .00011929  00000+0  28444-3 0  9993
2 10114  97.5672 109.6144 0008292  26.0934 334.0728 15.41692065648908
SEASAT 1                
1 10967U 78064A   25307.52723576  .00000453  00000+0  16564-3 0  9998
2 10967 108.0054 220.7841 0002536 260.2267  99.8592 14.45992936488271
SL-14 R/B               
1 11267U 79011B   25306.47430799  .00000838  00000+0  80559-4 0  9993
2 11267  82.5262 217.2229 0017491 119.3229 240.9741 14.91693140509816
SL-8 R/B                
1 11574U 79089B   25307.78456656  .00000353  00000+0  11499-3 0  9992
2 11574  74.0684 324.0802 0015415 173.1893 186.9476 14.42242854417959
SL-14 R/B               
1 11672U 80005B   25307.74620642  .00000889  00000+0  87880-4 0  9997
2 11672  82.5148  66.6715 0014836 219.4235 140.5906 14.90709246457728
SL-8 R/B                
1 12139U 81003B   25306.40568514  .00022348  00000+0  62616-3 0  9999
2 12139  82.9334  47.2609 0283953 259.7364  97.1738 15.04830932295490
SL-3 R/B                
1 12465U 81046B   25307.81428757  .00013165  00000+0  34426-3 0  9993
2 12465  81.2317  80.4542 0020843  97.3206 263.0405 15.38395295419058
METEOR PRIRODA          
1 12585U 81065A   25307.79673947  .00418739  78976-4  74985-3 0  9999
2 12585  97.4660  11.3487 0002343 284.3324  75.7694 16.01732614424556
SL-3 R/B                
1 12904U 81103B   25307.81739388  .00005023  00000+0  23424-3 0  9990
2 12904  81.1626   0.9156 0017367   9.3740 350.7811 15.19552521954100
SL-3 R/B                
1 13068U 82013B   25307.75900539  .00005247  00000+0  23705-3 0  9994
2 13068  81.1725 308.2271 0021547 242.0707 117.8343 15.20571382385207
