CCSDS_OMM_VERS = 2.0
CREATION_DATE  = 
ORIGINATOR     = 

OBJECT_NAME    = ATLAS CENTAUR R/B
OBJECT_ID      = 1972-065B
CENTER_NAME    = EARTH
REF_FRAME      = TEME
TIME_SYSTEM    = UTC
MEAN_ELEMENT_THEORY = SGP/SGP4

EPOCH          = 2025-11-03T17:34:19.424064
MEAN_MOTION    = 14.77249899
ECCENTRICITY   = .0033451
INCLINATION    = 35.0025
RA_OF_ASC_NODE = 323.6705
ARG_OF_PERICENTER = 29.7390
MEAN_ANOMALY   = 330.5204

EPHEMERIS_TYPE = 0
CLASSIFICATION_TYPE = U
NORAD_CAT_ID   = 6155
ELEMENT_SET_NO = 999
REV_AT_EPOCH   = 82262
BSTAR          = .21962E-3
MEAN_MOTION_DOT = .1573E-4
MEAN_MOTION_DDOT = 0

CCSDS_OMM_VERS = 2.0
CREATION_DATE  = 
ORIGINATOR     = 

OBJECT_NAME    = SL-8 R/B
OBJECT_ID      = 1975-112B
CENTER_NAME    = EARTH
REF_FRAME      = TEME
TIME_SYSTEM    = UTC
MEAN_ELEMENT_THEORY = SGP/SGP4

EPOCH          = 2025-11-03T19:20:19.188096
MEAN_MOTION    = 14.38106251
ECCENTRICITY   = .0015382
INCLINATION    = 74.0600
RA_OF_ASC_NODE = 250.4664
ARG_OF_PERICENTER = 8.2873
MEAN_ANOMALY   = 351.8532

EPHEMERIS_TYPE = 0
CLASSIFICATION_TYPE = U
NORAD_CAT_ID   = 8459
ELEMENT_SET_NO = 999
REV_AT_EPOCH   = 61377
BSTAR          = .11397E-3
MEAN_MOTION_DOT = .32E-5
MEAN_MOTION_DDOT = 0

CCSDS_OMM_VERS = 2.0
CREATION_DATE  = 
ORIGINATOR     = 

OBJECT_NAME    = SL-3 R/B
OBJECT_ID      = 1977-057B
CENTER_NAME    = EARTH
REF_FRAME      = TEME
TIME_SYSTEM    = UTC
MEAN_ELEMENT_THEORY = SGP/SGP4

EPOCH          = 2025-11-03T18:18:59.260896
MEAN_MOTION    = 15.41692065
ECCENTRICITY   = .0008292
INCLINATION    = 97.5672
RA_OF_ASC_NODE = 109.6144
ARG_OF_PERICENTER = 26.0934
MEAN_ANOMALY   = 334.0728

EPHEMERIS_TYPE = 0
CLASSIFICATION_TYPE = U
NORAD_CAT_ID   = 10114
ELEMENT_SET_NO = 999
REV_AT_EPOCH   = 64890
BSTAR          = .28444E-3
MEAN_MOTION_DOT = .11929E-3
MEAN_MOTION_DDOT = 0

CCSDS_OMM_VERS = 2.0
CREATION_DATE  = 
ORIGINATOR     = 

OBJECT_NAME    = SEASAT 1
OBJECT_ID      = 1978-064A
CENTER_NAME    = EARTH
REF_FRAME      = TEME
TIME_SYSTEM    = UTC
MEAN_ELEMENT_THEORY = SGP/SGP4

EPOCH          = 2025-11-03T12:39:13.169664
MEAN_MOTION    = 14.45992936
ECCENTRICITY   = .0002536
INCLINATION    = 108.0054
RA_OF_ASC_NODE = 220.7841
ARG_OF_PERICENTER = 260.2267
MEAN_ANOMALY   = 99.8592

EPHEMERIS_TYPE = 0
CLASSIFICATION_TYPE = U
NORAD_CAT_ID   = 10967
ELEMENT_SET_NO = 999
REV_AT_EPOCH   = 48827
BSTAR          = .16564E-3
MEAN_MOTION_DOT = .453E-5
MEAN_MOTION_DDOT = 0

CCSDS_OMM_VERS = 2.0
CREATION_DATE  = 
ORIGINATOR     = 

OBJECT_NAME    = SL-14 R/B
OBJECT_ID      = 1979-011B
CENTER_NAME    = EARTH
REF_FRAME      = TEME
TIME_SYSTEM    = UTC
MEAN_ELEMENT_THEORY = SGP/SGP4

EPOCH          = 2025-11-02T11:23:00.210336
MEAN_MOTION    = 14.91693140
ECCENTRICITY   = .0017491
INCLINATION    = 82.5262
RA_OF_ASC_NODE = 217.2229
ARG_OF_PERICENTER = 119.3229
MEAN_ANOMALY   = 240.9741

EPHEMERIS_TYPE = 0
CLASSIFICATION_TYPE = U
NORAD_CAT_ID   = 11267
ELEMENT_SET_NO = 999
REV_AT_EPOCH   = 50981
BSTAR          = .80559E-4
MEAN_MOTION_DOT = .838E-5
MEAN_MOTION_DDOT = 0

CCSDS_OMM_VERS = 2.0
CREATION_DATE  = 
ORIGINATOR     = 

OBJECT_NAME    = SL-8 R/B
OBJECT_ID      = 1979-089B
CENTER_NAME    = EARTH
REF_FRAME      = TEME
TIME_SYSTEM    = UTC
MEAN_ELEMENT_THEORY = SGP/SGP4

EPOCH          = 2025-11-03T18:49:46.550784
MEAN_MOTION    = 14.42242854
ECCENTRICITY   = .0015415
INCLINATION    = 74.0684
RA_OF_ASC_NODE = 324.0802
ARG_OF_PERICENTER = 173.1893
MEAN_ANOMALY   = 186.9476

EPHEMERIS_TYPE = 0
CLASSIFICATION_TYPE = U
NORAD_CAT_ID   = 11574
ELEMENT_SET_NO = 999
REV_AT_EPOCH   = 41795
BSTAR          = .11499E-3
MEAN_MOTION_DOT = .353E-5
MEAN_MOTION_DDOT = 0

CCSDS_OMM_VERS = 2.0
CREATION_DATE  = 
ORIGINATOR     = 

OBJECT_NAME    = SL-14 R/B
OBJECT_ID      = 1980-005B
CENTER_NAME    = EARTH
REF_FRAME      = TEME
TIME_SYSTEM    = UTC
MEAN_ELEMENT_THEORY = SGP/SGP4

EPOCH          = 2025-11-03T17:54:32.234688
MEAN_MOTION    = 14.90709246
ECCENTRICITY   = .0014836
INCLINATION    = 82.5148
RA_OF_ASC_NODE = 66.6715
ARG_OF_PERICENTER = 219.4235
MEAN_ANOMALY   = 140.5906

EPHEMERIS_TYPE = 0
CLASSIFICATION_TYPE = U
NORAD_CAT_ID   = 11672
ELEMENT_SET_NO = 999
REV_AT_EPOCH   = 45772
BSTAR          = .8788E-4
MEAN_MOTION_DOT = .889E-5
MEAN_MOTION_DDOT = 0

CCSDS_OMM_VERS = 2.0
CREATION_DATE  = 
ORIGINATOR     = 

OBJECT_NAME    = SL-8 R/B
OBJECT_ID      = 1981-003B
CENTER_NAME    = EARTH
REF_FRAME      = TEME
TIME_SYSTEM    = UTC
MEAN_ELEMENT_THEORY = SGP/SGP4

EPOCH          = 2025-11-02T09:44:11.196096
MEAN_MOTION    = 15.04830932
ECCENTRICITY   = .0283953
INCLINATION    = 82.9334
RA_OF_ASC_NODE = 47.2609
ARG_OF_PERICENTER = 259.7364
MEAN_ANOMALY   = 97.1738

EPHEMERIS_TYPE = 0
CLASSIFICATION_TYPE = U
NORAD_CAT_ID   = 12139
ELEMENT_SET_NO = 999
REV_AT_EPOCH   = 29549
BSTAR          = .62616E-3
MEAN_MOTION_DOT = .22348E-3
MEAN_MOTION_DDOT = 0

CCSDS_OMM_VERS = 2.0
CREATION_DATE  = 
ORIGINATOR     = 

OBJECT_NAME    = SL-3 R/B
OBJECT_ID      = 1981-046B
CENTER_NAME    = EARTH
REF_FRAME      = TEME
TIME_SYSTEM    = UTC
MEAN_ELEMENT_THEORY = SGP/SGP4

EPOCH          = 2025-11-03T19:32:34.446048
MEAN_MOTION    = 15.38395295
ECCENTRICITY   = .0020843
INCLINATION    = 81.2317
RA_OF_ASC_NODE = 80.4542
ARG_OF_PERICENTER = 97.3206
MEAN_ANOMALY   = 263.0405

EPHEMERIS_TYPE = 0
CLASSIFICATION_TYPE = U
NORAD_CAT_ID   = 12465
ELEMENT_SET_NO = 999
REV_AT_EPOCH   = 41905
BSTAR          = .34426E-3
MEAN_MOTION_DOT = .13165E-3
MEAN_MOTION_DDOT = 0

CCSDS_OMM_VERS = 2.0
CREATION_DATE  = 
ORIGINATOR     = 

OBJECT_NAME    = METEOR PRIRODA
OBJECT_ID      = 1981-065A
CENTER_NAME    = EARTH
REF_FRAME      = TEME
TIME_SYSTEM    = UTC
MEAN_ELEMENT_THEORY = SGP/SGP4

EPOCH          = 2025-11-03T19:07:18.290208
MEAN_MOTION    = 16.01732614
ECCENTRICITY   = .0002343
INCLINATION    = 97.4660
RA_OF_ASC_NODE = 11.3487
ARG_OF_PERICENTER = 284.3324
MEAN_ANOMALY   = 75.7694

EPHEMERIS_TYPE = 0
CLASSIFICATION_TYPE = U
NORAD_CAT_ID   = 12585
ELEMENT_SET_NO = 999
REV_AT_EPOCH   = 42455
BSTAR          = .74985E-3
MEAN_MOTION_DOT = .418739E-2
MEAN_MOTION_DDOT = .78976E-4

CCSDS_OMM_VERS = 2.0
CREATION_DATE  = 
ORIGINATOR     = 

OBJECT_NAME    = SL-3 R/B
OBJECT_ID      = 1981-103B
CENTER_NAME    = EARTH
REF_FRAME      = TEME
TIME_SYSTEM    = UTC
MEAN_ELEMENT_THEORY = SGP/SGP4

EPOCH          = 2025-11-03T19:37:02.831232
MEAN_MOTION    = 15.19552521
ECCENTRICITY   = .0017367
INCLINATION    = 81.1626
RA_OF_ASC_NODE = 0.9156
ARG_OF_PERICENTER = 9.3740
MEAN_ANOMALY   = 350.7811

EPHEMERIS_TYPE = 0
CLASSIFICATION_TYPE = U
NORAD_CAT_ID   = 12904
ELEMENT_SET_NO = 999
REV_AT_EPOCH   = 95410
BSTAR          = .23424E-3
MEAN_MOTION_DOT = .5023E-4
MEAN_MOTION_DDOT = 0

CCSDS_OMM_VERS = 2.0
CREATION_DATE  = 
ORIGINATOR     = 

OBJECT_NAME    = SL-3 R/B
OBJECT_ID      = 1982-013B
CENTER_NAME    = EARTH
REF_FRAME      = TEME
TIME_SYSTEM    = UTC
MEAN_ELEMENT_THEORY = SGP/SGP4

EPOCH          = 2025-11-03T18:12:58.065696
MEAN_MOTION    = 15.20571382
ECCENTRICITY   = .0021547
INCLINATION    = 81.1725
RA_OF_ASC_NODE = 308.2271
ARG_OF_PERICENTER = 242.0707
MEAN_ANOMALY   = 117.8343

EPHEMERIS_TYPE = 0
CLASSIFICATION_TYPE = U
NORAD_CAT_ID   = 13068
ELEMENT_SET_NO = 999
REV_AT_EPOCH   = 38520
BSTAR          = .23705E-3
MEAN_MOTION_DOT = .5247E-4
MEAN_MOTION_DDOT = 0

